{"fetched_at":"2026-03-30T06:02:59Z","count":15439,"tles":[{"name":"STARLINK-5778","line1":"1 57149U 23090BA  26087.84070044  .00000184  00000+0  28704-4 0  9997","line2":"2 57149  43.0037 131.5670 0001361 270.0167  90.0519 15.02541174153746","category":"Starlink"}]}