{
  "norad_id": 57149,
  "name": "STARLINK-5778",
  "history": [
    {
      "epoch": "2026-03-28T20:10:36.518016",
      "apogee_km": 560.0078995914628,
      "perigee_km": 558.1193160979828,
      "latitude_deg": 37.6034870633171,
      "longitude_deg": -24.392757759895176,
      "semi_major_axis_km": 6937.200607844722,
      "eccentricity": 0.00013612,
      "inclination_deg": 43.0037,
      "raan_deg": 131.567,
      "arg_perigee_deg": 270.0167,
      "mean_anomaly_deg": 90.0519,
      "mean_motion_rev_day": 15.02541174
    }
  ]
}